H1 CPF  1  DGF 2022 06 21 09  6721 larets     NONE      
H2   304206 5557    27944 2022 06 17 00 00 00 2022 06 24 00 00 00    30 1 1  0 0 0
H5  0.0650
H9
10 0 59747  25200.000000  0       1859214.575      -3160645.051      -6033536.073
10 0 59747  25230.000000  0       1891363.712      -3354141.204      -5918017.917
10 0 59747  25260.000000  0       1920761.246      -3544380.969      -5796472.449
10 0 59747  25290.000000  0       1947391.814      -3731159.336      -5669022.460
10 0 59747  25320.000000  0       1971243.726      -3914274.657      -5535796.774
10 0 59747  25350.000000  0       1992308.959      -4093528.870      -5396930.126
10 0 59747  25380.000000  0       2010583.160      -4268727.715      -5252563.032
10 0 59747  25410.000000  0       2026065.625      -4439680.953      -5102841.655
10 0 59747  25440.000000  0       2038759.294      -4606202.572      -4947917.662
10 0 59747  25470.000000  0       2048670.728      -4768111.000      -4787948.082
10 0 59747  25500.000000  0       2055810.087      -4925229.311      -4623095.147
10 0 59747  25530.000000  0       2060191.104      -5077385.426      -4453526.140
10 0 59747  25560.000000  0       2061831.047      -5224412.310      -4279413.225
10 0 59747  25590.000000  0       2060750.688      -5366148.165      -4100933.274
10 0 59747  25620.000000  0       2056974.257      -5502436.619      -3918267.694
10 0 59747  25650.000000  0       2050529.396      -5633126.902      -3731602.247
10 0 59747  25680.000000  0       2041447.112      -5758074.027      -3541126.856
10 0 59747  25710.000000  0       2029761.719      -5877138.958      -3347035.418
10 0 59747  25740.000000  0       2015510.781      -5990188.776      -3149525.611
10 0 59747  25770.000000  0       1998735.046      -6097096.835      -2948798.686
10 0 59747  25800.000000  0       1979478.381      -6197742.919      -2745059.261
10 0 59747  25830.000000  0       1957787.700      -6292013.377      -2538515.108
10 0 59747  25860.000000  0       1933712.885      -6379801.263      -2329376.940
10 0 59747  25890.000000  0       1907306.713      -6461006.459      -2117858.190
10 0 59747  25920.000000  0       1878624.770      -6535535.798      -1904174.794
10 0 59747  25950.000000  0       1847725.366      -6603303.177      -1688544.971
10 0 59747  25980.000000  0       1814669.444      -6664229.673      -1471188.999
10 0 59747  26010.000000  0       1779520.490      -6718243.644      -1252328.973
10 0 59747  26040.000000  0       1742344.438      -6765280.820      -1032188.572
10 0 59747  26070.000000  0       1703209.566      -6805284.374       -810992.818
10 0 59747  26100.000000  0       1662186.394      -6838204.989       -588967.838
10 0 59747  26130.000000  0       1619347.581      -6864000.921       -366340.633
10 0 59747  26160.000000  0       1574767.815      -6882638.050       -143338.838
10 0 59747  26190.000000  0       1528523.704      -6894089.925         79809.509
10 0 59747  26220.000000  0       1480693.664      -6898337.814        302876.212
10 0 59747  26250.000000  0       1431357.805      -6895370.727        525633.157
10 0 59747  26280.000000  0       1380597.810      -6885185.441        747852.558
10 0 59747  26310.000000  0       1328496.816      -6867786.503        969307.201
10 0 59747  26340.000000  0       1275139.294      -6843186.230       1189770.679
10 0 59747  26370.000000  0       1220610.932      -6811404.700       1409017.640
10 0 59747  26400.000000  0       1164998.509      -6772469.727       1626824.024
10 0 59747  26430.000000  0       1108389.773      -6726416.829       1842967.292
10 0 59747  26460.000000  0       1050873.318      -6673289.198       2057226.659
10 0 59747  26490.000000  0        992538.454      -6613137.652       2269383.332
10 0 59747  26520.000000  0        933475.083      -6546020.579       2479220.734
10 0 59747  26550.000000  0        873773.569      -6472003.873       2686524.734
10 0 59747  26580.000000  0        813524.613      -6391160.854       2891083.862
10 0 59747  26610.000000  0        752819.125      -6303572.198       3092689.532
10 0 59747  26640.000000  0        691748.097      -6209325.838       3291136.256
10 0 59747  26670.000000  0        630402.479      -6108516.874       3486221.851
10 0 59747  26700.000000  0        568873.053      -6001247.464       3677747.651
10 0 59747  26730.000000  0        507250.309      -5887626.713       3865518.702
10 0 59747  26760.000000  0        445624.321      -5767770.555       4049343.969
10 0 59747  26790.000000  0        384084.629      -5641801.624       4229036.522
10 0 59747  26820.000000  0        322720.112      -5509849.118       4404413.731
10 0 59747  26850.000000  0        261618.871      -5372048.659       4575297.451
10 0 59747  26880.000000  0        200868.109      -5228542.137       4741514.194
10 0 59747  26910.000000  0        140554.019      -5079477.558       4902895.305
10 0 59747  26940.000000  0         80761.664      -4925008.882       5059277.126
10 0 59747  26970.000000  0         21574.874      -4765295.857       5210501.159
10 0 59747  27000.000000  0        -36923.871      -4600503.843       5356414.221
10 0 59747  27030.000000  0        -94653.541      -4430803.636       5496868.600
10 0 59747  27060.000000  0       -151534.665      -4256371.277       5631722.193
10 0 59747  27090.000000  0       -207489.432      -4077387.865       5760838.649
10 0 59747  27120.000000  0       -262441.791      -3894039.355       5884087.496
10 0 59747  27150.000000  0       -316317.544      -3706516.361       6001344.266
10 0 59747  27180.000000  0       -369044.446      -3515013.951       6112490.609
10 0 59747  27210.000000  0       -420552.290      -3319731.440       6217414.405
10 0 59747  27240.000000  0       -470772.998      -3120872.176       6316009.868
10 0 59747  27270.000000  0       -519640.702      -2918643.332       6408177.640
10 0 59747  27300.000000  0       -567091.829      -2713255.684       6493824.888
10 0 59747  27330.000000  0       -613065.176      -2504923.395       6572865.392
10 0 59747  27360.000000  0       -657501.982      -2293863.788       6645219.619
10 0 59747  27390.000000  0       -700346.003      -2080297.120       6710814.805
10 0 59747  27420.000000  0       -741543.577      -1864446.353       6769585.018
10 0 59747  27450.000000  0       -781043.686      -1646536.922       6821471.223
10 0 59747  27480.000000  0       -818798.021      -1426796.496       6866421.337
10 0 59747  27510.000000  0       -854761.032      -1205454.742       6904390.274
10 0 59747  27540.000000  0       -888889.989       -982743.089       6935339.991
10 0 59747  27570.000000  0       -921145.025       -758894.479       6959239.516
10 0 59747  27600.000000  0       -951489.183       -534143.132       6976064.981
10 0 59747  27630.000000  0       -979888.460       -308724.303       6985799.637
10 0 59747  27660.000000  0      -1006311.839        -82874.036       6988433.871
10 0 59747  27690.000000  0      -1030731.323        143171.078       6983965.219
10 0 59747  27720.000000  0      -1053121.967        369174.149       6972398.363
10 0 59747  27750.000000  0      -1073461.898        594898.236       6953745.126
10 0 59747  27780.000000  0      -1091732.339        820106.587       6928024.457
10 0 59747  27810.000000  0      -1107917.626       1044562.886       6895262.420
10 0 59747  27840.000000  0      -1122005.216       1268031.500       6855492.163
10 0 59747  27870.000000  0      -1133985.703       1490277.722       6808753.891
10 0 59747  27900.000000  0      -1143852.817       1711068.018       6755094.827
10 0 59747  27930.000000  0      -1151603.428       1930170.268       6694569.165
10 0 59747  27960.000000  0      -1157237.540       2147354.007       6627238.023
10 0 59747  27990.000000  0      -1160758.287       2362390.668       6553169.383
10 0 59747  28020.000000  0      -1162171.917       2575053.820       6472438.028
10 0 59747  28050.000000  0      -1161487.784       2785119.407       6385125.478
10 0 59747  28080.000000  0      -1158718.325       2992365.985       6291319.905
10 0 59747  28110.000000  0      -1153879.036       3196574.960       6191116.053
10 0 59747  28140.000000  0      -1146988.446       3397530.812       6084615.148
10 0 59747  28170.000000  0      -1138068.082       3595021.325       5971924.799
10 0 59747  28200.000000  0      -1127142.435       3788837.815       5853158.901
10 0 59747  28230.000000  0      -1114238.921       3978775.351       5728437.526
10 0 59747  28260.000000  0      -1099387.837       4164632.977       5597886.811
10 0 59747  28290.000000  0      -1082622.315       4346213.929       5461638.834
10 0 59747  28320.000000  0      -1063978.275       4523325.850       5319831.490
10 0 59747  28350.000000  0      -1043494.366       4695780.997       5172608.359
10 0 59747  28380.000000  0      -1021211.914       4863396.450       5020118.562
10 0 59747  28410.000000  0       -997174.855       5025994.314       4862516.616
10 0 59747  28440.000000  0       -971429.670       5183401.911       4699962.281
10 0 59747  28470.000000  0       -944025.315       5335451.969       4532620.398
10 0 59747  28500.000000  0       -915013.149       5481982.802       4360660.728
10 0 59747  28530.000000  0       -884446.856       5622838.487       4184257.789
10 0 59747  28560.000000  0       -852382.372       5757869.036       4003590.690
10 0 59747  28590.000000  0       -818877.803       5886930.568       3818842.954
10 0 59747  28620.000000  0       -783993.345       6009885.477       3630202.338
10 0 59747  28650.000000  0       -747791.192       6126602.596       3437860.641
10 0 59747  28680.000000  0       -710335.453       6236957.343       3242013.513
10 0 59747  28710.000000  0       -671692.052       6340831.874       3042860.242
10 0 59747  28740.000000  0       -631928.631       6438115.207       2840603.551
10 0 59747  28770.000000  0       -591114.452       6528703.345       2635449.386
99
